#dP2018  1  1  0  0  0.00000000      96 __u+U ITR00 FIT  IAC
## 1982  86400.00000000   900.00000000 58119 0.0000000000000
+   88   C01C02C03C04C05C06C07C08C09C10C11C12C13C14E01E02E03
+        E04E05E07E08E09E11E12E14E18E19E24E26E30G01G02G03G04
+        G05G06G07G08G09G10G11G12G13G14G15G16G17G18G19G20G21
+        G22G23G24G25G26G27G28G29G30G31G32J02J03R01R02R03R04
+        R05R06R07R08R09R10R11R13R14R15R16R17R18R19R20R21R22
+        R23R24R26  0  0  0  0  0  0  0  0  0  0  0  0  0  0
++         0  0  0  0  0 10 10 10 10  9  8  8  9  8  7  7  7
++         7  7  7  7  7  8  7  7  8  7  7  7  6  5  4  5  6
++         4  4  4  5  4  5  5  5  5  4  4  4  4  4  4  4  5
++         5  5  4  4  4  4  5  4  4  5  4  0  0  6  6  6  6
++         6  6  6  6  6  5  5  6  6  5  6  6  6  5  5  5  6
++         6  6  0  0  0  0  0  0  0  0  0  0  0  0  0  0  0
%c M  cc GPS ccc cccc cccc cccc cccc ccccc ccccc ccccc ccccc
%c cc cc ccc ccc cccc cccc cccc cccc ccccc ccccc ccccc ccccc
%f  0.0000000  0.000000000  0.00000000000  0.000000000000000
%f  0.0000000  0.000000000  0.00000000000  0.000000000000000
%i    0    0    0    0      0      0      0      0         0
%i    0    0    0    0      0      0      0      0         0
/* INFORMATION & ANALYSIS CENTER (IAC) OF MCC   (RAPID DATA)
/* S/V CLOCKS ARE ALIGNED TO GPS & GLONASS TIME RESPECTIVELY
/* USING THE BROADCAST EPHEMERIS                            
/* PCV:IGS14_1977 OL/AL:FES2004  NONE     YN ORB:CoN CLK:CoN
*  2018 01 01 21 30  0.00000000
PC01      0.000000      0.000000      0.000000 999999.999999
PC02      0.000000      0.000000      0.000000 999999.999999
PC03      0.000000      0.000000      0.000000 999999.999999
PC04      0.000000      0.000000      0.000000 999999.999999
PC05      0.000000      0.000000      0.000000 999999.999999
PC06 -22815.050387  35301.564288  -4827.360251 999999.999999
PC07  -8669.982011  30516.765719 -27447.057892 999999.999999
PC08 -18482.003958  18482.725654  33107.221423 999999.999999
PC09 -12321.662404  35707.967358 -18904.570527 999999.999999
PC10   4088.300518  38171.581700 -16913.542306 999999.999999
PC11 -27036.488569   6225.114067  -2493.181852 999999.999999
PC12 -19257.719927  -7204.060918 -18760.220428 999999.999999
PC13  -2020.539725  23602.919068  34898.596163 999999.999999
PC14 -16851.142071   5784.384035  21537.598792 999999.999999
PE01  17577.430025    316.850861  23818.663569 999999.999999
PE02 -17562.736473   -288.748069 -23818.532848 999999.999999
PE03 -21555.555642  10850.269302  17129.755664 999999.999999
PE04  16179.749452 -24783.906420   -166.734694 999999.999999
PE05 -14323.338603  -9472.033443  24104.767519 999999.999999
PE07  -1279.625246  24220.146278 -16963.539161 999999.999999
PE08 -15941.717961  24934.323555    202.607672 999999.999999
PE09   1186.070720 -24219.981437  16983.070949 999999.999999
PE11  -6841.004534 -16300.742248 -23741.600794 999999.999999
PE12  15546.064892 -13661.322790 -21149.295432 999999.999999
PE14 -25023.251532  13793.929118    742.882855 999999.999999
PE18  14212.025270 -20576.450673 -14531.113033 999999.999999
PE19  21263.607994  -9115.238021 -18464.367549 999999.999999
PE24  -9085.760816 -27332.063144   6778.807209 999999.999999
PE26  25059.076878   9615.815255  12497.455026 999999.999999
PE30  -5988.929208  19259.021036 -21672.794450 999999.999999
PG01 -22631.549841 -14075.924917  -1984.485455    -20.954023
PG02   5001.758872  17950.189833  19570.228509    239.644080
PG03 -13092.366455 -14189.963362  18238.218591    -17.236528
PG04   8616.736309 -21358.784550  12743.689562 999999.999999
PG05   2690.130362  26228.381163  -2169.670129    -18.114099
PG06  -7594.012429  12976.100739  21922.161070    414.330558
PG07 -23436.338705  -3547.179507 -12220.428431    257.596029
PG08  -9319.424677 -11865.917448 -21806.056469    -86.200329
PG09 -23677.566007   6147.047821  10321.425408    489.145297
PG10  11232.504660 -17217.923999 -16710.185756    139.410521
PG11 -22003.263347 -10554.437510 -10889.048961   -732.689897
PG12  10513.831084  17509.185517  16920.190247    357.562803
PG13    234.438960  16008.506074 -21313.113802    -95.120190
PG14  14774.282605 -17817.267089  13153.939999    -91.659495
PG15  12116.980941  10857.537764 -21230.923899   -357.406277
PG16   -594.089135 -26153.841184  -3128.299597 999999.999999
PG17 -20984.613328  15407.326903   5250.486786   -133.979722
PG18  15034.151631  -5712.852484 -20522.899220    633.587920
PG19 -16837.027412  16863.307643  11669.967097   -466.349459
PG20  14145.984774  15960.329468 -16007.168131    497.172605
PG21  22762.645974    697.620816 -12916.394781   -446.329767
PG22 -11429.940089 -20266.538968  13025.995969   -242.483672
PG23 -19083.140574  -3887.390540  18501.750992   -219.065538
PG24  21634.064977  14862.897045  -5051.734286    -44.251248
PG25  14737.056248   3722.632373  21644.675471   -515.435638
PG26   4767.287499 -24754.320780   8171.086955 999999.999999
PG27   3780.242481 -17717.332395 -19395.863403    360.042157
PG28 -12840.307482  13725.537376 -18146.706228    676.126923
PG29  22500.047575  -1347.492072  14029.839057    517.075974
PG30 -18384.112562   4463.036529 -18693.599403    116.077783
PG31   7347.827022 -13242.824720  21863.987756    151.505611
PG32  19783.405202 -16801.242833   5486.281718   -531.977188
PJ02      0.000000      0.000000      0.000000 999999.999999
PJ03      0.000000      0.000000      0.000000 999999.999999
PR01  11511.772896 -22438.338203  -3889.349108 999999.999999
PR02   1259.445988 -20594.531939  14994.955525 999999.999999
PR03  -9256.701196  -6229.911109  22966.706110    120.217256
PR04 -14297.693533  12176.232412  17277.584334    244.364062
PR05 -10819.797483  22989.016318   2199.901010   -222.547769
PR06   -328.435864  20245.439423 -15550.019007    124.346447
PR07   9380.452598   5910.271114 -22947.725634    -26.358466
PR08  14267.089820 -11589.280187 -17642.597343    -27.023522
PR09  10787.689394  21664.688584  -7947.912473     48.079416
PR10  17112.795520  15983.721573  10006.692135     15.009685
PR11  13219.901709    597.049562  21816.319378    -18.355486
PR13 -11861.280648 -21437.327221   7090.665619 999999.999999
PR14 -17242.314652 -16136.226000  -9638.496227     23.513497
PR15 -14477.636247  -3965.212939 -20581.699635     -4.690825
PR16  -1618.671599  14468.157026 -20995.055459     82.433513
PR17 -20876.136736  -4335.710005 -13959.885267     97.677249
PR18 -25142.624955   3772.478051   2448.589251    179.498776
PR19 -15362.880987   9520.304022  18003.963405    -39.652796
PR20   4551.876194  10069.163790  22997.011968   -321.811195
PR21  21041.935739   4165.511521  13830.195284     17.106414
PR22  24690.970827  -4459.322046  -4206.162097     -6.710963
PR23  12172.959336 -10365.810306 -19877.847796    127.783864
PR24  -5415.578478  -9920.101731 -22887.684788   -160.542676
PR26      0.000000      0.000000      0.000000 999999.999999
EOF
